{
  "type": "FeatureCollection",
  "features": [
    {
      "type": "Feature",
      "properties": {
        "norad_id": 38755,
        "name": "SPOT 6",
        "group": "resource",
        "lat": -76.73367230621855,
        "lon": -154.6476909632639,
        "alt_km": 706.1028749467405,
        "timestamp": "2025-12-24T05:51:19.262556+00:00",
        "meta_object_name": "SPOT 6",
        "meta_object_id": "2012-047A",
        "meta_epoch": "2025-12-23T23:43:47.495424",
        "meta_mean_motion": 14.58541297,
        "meta_eccentricity": 0.00012573,
        "meta_inclination": 98.1557,
        "meta_ra_of_asc_node": 62.5652,
        "meta_arg_of_pericenter": 78.9064,
        "meta_mean_anomaly": 281.2277,
        "meta_ephemeris_type": 0,
        "meta_classification_type": "U",
        "meta_norad_cat_id": 38755,
        "meta_element_set_no": 999,
        "meta_rev_at_epoch": 70751,
        "meta_bstar": 7.6566104e-05,
        "meta_mean_motion_dot": 3.11e-06,
        "meta_mean_motion_ddot": 0,
        "tle_line1": "1 38755U 12047A   25357.98874416  .00000311  00000+0  76566-4 0  9999",
        "tle_line2": "2 38755  98.1557  62.5652 0001257  78.9064 281.2277 14.58541297707515"
      },
      "geometry": {
        "type": "Point",
        "coordinates": [
          -154.6476909632639,
          -76.73367230621855
        ]
      }
    },
    {
      "type": "Feature",
      "properties": {
        "norad_id": 39019,
        "name": "PLEIADES 1B",
        "group": "resource",
        "lat": 21.813200713219036,
        "lon": -105.98663433439626,
        "alt_km": 697.3471929066918,
        "timestamp": "2025-12-24T05:51:19.262566+00:00",
        "meta_object_name": "PLEIADES 1B",
        "meta_object_id": "2012-068A",
        "meta_epoch": "2025-12-23T22:32:54.249792",
        "meta_mean_motion": 14.58562392,
        "meta_eccentricity": 0.00011433,
        "meta_inclination": 98.1783,
        "meta_ra_of_asc_node": 70.4141,
        "meta_arg_of_pericenter": 86.5405,
        "meta_mean_anomaly": 273.5925,
        "meta_ephemeris_type": 0,
        "meta_classification_type": "U",
        "meta_norad_cat_id": 39019,
        "meta_element_set_no": 999,
        "meta_rev_at_epoch": 69530,
        "meta_bstar": 9.4838995e-05,
        "meta_mean_motion_dot": 3.95e-06,
        "meta_mean_motion_ddot": 0,
        "tle_line1": "1 39019U 12068A   25357.93951678  .00000395  00000+0  94839-4 0  9992",
        "tle_line2": "2 39019  98.1783  70.4141 0001143  86.5405 273.5925 14.58562392695305"
      },
      "geometry": {
        "type": "Point",
        "coordinates": [
          -105.98663433439626,
          21.813200713219036
        ]
      }
    },
    {
      "type": "Feature",
      "properties": {
        "norad_id": 39030,
        "name": "GOKTURK 2",
        "group": "resource",
        "lat": -14.92946579366364,
        "lon": -158.60432058675644,
        "alt_km": 649.4224616582906,
        "timestamp": "2025-12-24T05:51:19.262576+00:00",
        "meta_object_name": "GOKTURK 2",
        "meta_object_id": "2012-073A",
        "meta_epoch": "2025-12-23T23:24:44.636832",
        "meta_mean_motion": 14.75305568,
        "meta_eccentricity": 0.00013899,
        "meta_inclination": 97.6883,
        "meta_ra_of_asc_node": 199.0764,
        "meta_arg_of_pericenter": 106.8113,
        "meta_mean_anomaly": 253.3249,
        "meta_ephemeris_type": 0,
        "meta_classification_type": "U",
        "meta_norad_cat_id": 39030,
        "meta_element_set_no": 999,
        "meta_rev_at_epoch": 69867,
        "meta_bstar": 9.1312733e-05,
        "meta_mean_motion_dot": 5.71e-06,
        "meta_mean_motion_ddot": 0,
        "tle_line1": "1 39030U 12073A   25357.97551663  .00000571  00000+0  91313-4 0  9995",
        "tle_line2": "2 39030  97.6883 199.0764 0001389 106.8113 253.3249 14.75305568698673"
      },
      "geometry": {
        "type": "Point",
        "coordinates": [
          -158.60432058675644,
          -14.92946579366364
        ]
      }
    },
    {
      "type": "Feature",
      "properties": {
        "norad_id": 39084,
        "name": "LANDSAT 8",
        "group": "resource",
        "lat": -81.58242826710566,
        "lon": 168.9542969470959,
        "alt_km": 710.6015165252775,
        "timestamp": "2025-12-24T05:51:19.262586+00:00",
        "meta_object_name": "LANDSAT 8",
        "meta_object_id": "2013-008A",
        "meta_epoch": "2025-12-23T22:02:10.222368",
        "meta_mean_motion": 14.57113456,
        "meta_eccentricity": 0.00010558,
        "meta_inclination": 98.2057,
        "meta_ra_of_asc_node": 65.8259,
        "meta_arg_of_pericenter": 92.3761,
        "meta_mean_anomaly": 267.7558,
        "meta_ephemeris_type": 0,
        "meta_classification_type": "U",
        "meta_norad_cat_id": 39084,
        "meta_element_set_no": 999,
        "meta_rev_at_epoch": 67237,
        "meta_bstar": 0.00010184025,
        "meta_mean_motion_dot": 4.14e-06,
        "meta_mean_motion_ddot": 0,
        "tle_line1": "1 39084U 13008A   25357.91817387  .00000414  00000+0  10184-3 0  9997",
        "tle_line2": "2 39084  98.2057  65.8259 0001055  92.3761 267.7558 14.57113456672373"
      },
      "geometry": {
        "type": "Point",
        "coordinates": [
          168.9542969470959,
          -81.58242826710566
        ]
      }
    },
    {
      "type": "Feature",
      "properties": {
        "norad_id": 39086,
        "name": "SARAL",
        "group": "resource",
        "lat": -32.82887882341362,
        "lon": -172.40592733245506,
        "alt_km": 789.6674619133,
        "timestamp": "2025-12-24T05:51:19.262596+00:00",
        "meta_object_name": "SARAL",
        "meta_object_id": "2013-009A",
        "meta_epoch": "2025-12-23T23:18:21.698208",
        "meta_mean_motion": 14.32760771,
        "meta_eccentricity": 0.00029633,
        "meta_inclination": 98.5503,
        "meta_ra_of_asc_node": 181.7548,
        "meta_arg_of_pericenter": 87.6039,
        "meta_mean_anomaly": 272.5485,
        "meta_ephemeris_type": 0,
        "meta_classification_type": "U",
        "meta_norad_cat_id": 39086,
        "meta_element_set_no": 999,
        "meta_rev_at_epoch": 67051,
        "meta_bstar": 5.8810116e-05,
        "meta_mean_motion_dot": 1.17e-06,
        "meta_mean_motion_ddot": 0,
        "tle_line1": "1 39086U 13009A   25357.97108447  .00000117  00000+0  58810-4 0  9995",
        "tle_line2": "2 39086  98.5503 181.7548 0002963  87.6039 272.5485 14.32760771670515"
      },
      "geometry": {
        "type": "Point",
        "coordinates": [
          -172.40592733245506,
          -32.82887882341362
        ]
      }
    },
    {
      "type": "Feature",
      "properties": {
        "norad_id": 39150,
        "name": "GAOFEN-1",
        "group": "resource",
        "lat": 64.94351135759518,
        "lon": -93.95106129663537,
        "alt_km": 621.1458566759211,
        "timestamp": "2025-12-24T05:51:19.262606+00:00",
        "meta_object_name": "GAOFEN-1",
        "meta_object_id": "2013-018A",
        "meta_epoch": "2025-12-23T22:50:12.985152",
        "meta_mean_motion": 14.76497297,
        "meta_eccentricity": 0.00184999,
        "meta_inclination": 97.9314,
        "meta_ra_of_asc_node": 68.4119,
        "meta_arg_of_pericenter": 109.0711,
        "meta_mean_anomaly": 251.2504,
        "meta_ephemeris_type": 0,
        "meta_classification_type": "U",
        "meta_norad_cat_id": 39150,
        "meta_element_set_no": 999,
        "meta_rev_at_epoch": 68238,
        "meta_bstar": 9.0530126e-05,
        "meta_mean_motion_dot": 5.81e-06,
        "meta_mean_motion_ddot": 0,
        "tle_line1": "1 39150U 13018A   25357.95153918  .00000581  00000+0  90530-4 0  9998",
        "tle_line2": "2 39150  97.9314  68.4119 0018499 109.0711 251.2504 14.76497297682384"
      },
      "geometry": {
        "type": "Point",
        "coordinates": [
          -93.95106129663537,
          64.94351135759518
        ]
      }
    },
    {
      "type": "Feature",
      "properties": {
        "norad_id": 39160,
        "name": "VNREDSAT 1",
        "group": "resource",
        "lat": 56.15014416170282,
        "lon": 41.11145881435503,
        "alt_km": 671.151397817106,
        "timestamp": "2025-12-24T05:51:19.262616+00:00",
        "meta_object_name": "VNREDSAT 1",
        "meta_object_id": "2013-021B",
        "meta_epoch": "2025-12-23T23:02:20.619168",
        "meta_mean_motion": 14.64938367,
        "meta_eccentricity": 0.00011759,
        "meta_inclination": 97.9356,
        "meta_ra_of_asc_node": 52.841,
        "meta_arg_of_pericenter": 81.8483,
        "meta_mean_anomaly": 278.2854,
        "meta_ephemeris_type": 0,
        "meta_classification_type": "U",
        "meta_norad_cat_id": 39160,
        "meta_element_set_no": 999,
        "meta_rev_at_epoch": 67463,
        "meta_bstar": 0.00012317537,
        "meta_mean_motion_dot": 6.13e-06,
        "meta_mean_motion_ddot": 0,
        "tle_line1": "1 39160U 13021B   25357.95996087  .00000613  00000+0  12318-3 0  9998",
        "tle_line2": "2 39160  97.9356  52.8410 0001175  81.8483 278.2854 14.64938367674639"
      },
      "geometry": {
        "type": "Point",
        "coordinates": [
          41.11145881435503,
          56.15014416170282
        ]
      }
    }
  ]
}